{
  "type": "FeatureCollection",
  "features": [
    {
      "type": "Feature",
      "properties": {
        "river_name": "Bhagirathi River",
        "reach": "Tehri Dam to Rishikesh Reach"
      },
      "geometry": {
        "type": "LineString",
        "coordinates": [
          [
            78.68,
            30.38
          ],
          [
            78.67122,
            30.38767
          ],
          [
            78.66245,
            30.39522
          ],
          [
            78.65367,
            30.40252
          ],
          [
            78.6449,
            30.40944
          ],
          [
            78.63612,
            30.41589
          ],
          [
            78.62735,
            30.42174
          ],
          [
            78.61857,
            30.42691
          ],
          [
            78.6098,
            30.43131
          ],
          [
            78.60102,
            30.43486
          ],
          [
            78.59224,
            30.43752
          ],
          [
            78.58347,
            30.43923
          ],
          [
            78.57469,
            30.43997
          ],
          [
            78.56592,
            30.43972
          ],
          [
            78.55714,
            30.4385
          ],
          [
            78.54837,
            30.43631
          ],
          [
            78.53959,
            30.4332
          ],
          [
            78.53082,
            30.42921
          ],
          [
            78.52204,
            30.42442
          ],
          [
            78.51327,
            30.41889
          ],
          [
            78.50449,
            30.41273
          ],
          [
            78.49571,
            30.40603
          ],
          [
            78.48694,
            30.39891
          ],
          [
            78.47816,
            30.39147
          ],
          [
            78.46939,
            30.38384
          ],
          [
            78.46061,
            30.37616
          ],
          [
            78.45184,
            30.36853
          ],
          [
            78.44306,
            30.36109
          ],
          [
            78.43429,
            30.35397
          ],
          [
            78.42551,
            30.34727
          ],
          [
            78.41673,
            30.34111
          ],
          [
            78.40796,
            30.33558
          ],
          [
            78.39918,
            30.33079
          ],
          [
            78.39041,
            30.3268
          ],
          [
            78.38163,
            30.32369
          ],
          [
            78.37286,
            30.3215
          ],
          [
            78.36408,
            30.32028
          ],
          [
            78.35531,
            30.32003
          ],
          [
            78.34653,
            30.32077
          ],
          [
            78.33776,
            30.32248
          ],
          [
            78.32898,
            30.32514
          ],
          [
            78.3202,
            30.32869
          ],
          [
            78.31143,
            30.33309
          ],
          [
            78.30265,
            30.33826
          ],
          [
            78.29388,
            30.34411
          ],
          [
            78.2851,
            30.35056
          ],
          [
            78.27633,
            30.35748
          ],
          [
            78.26755,
            30.36478
          ],
          [
            78.25878,
            30.37233
          ],
          [
            78.25,
            30.38
          ]
        ]
      }
    }
  ]
}