{
  "type": "FeatureCollection",
  "features": [
    {
      "type": "Feature",
      "properties": {
        "name": "Kosi River Basin Study Area",
        "state": "Bihar"
      },
      "geometry": {
        "type": "Polygon",
        "coordinates": [
          [
            [
              86.7,
              26.65
            ],
            [
              87.2,
              26.65
            ],
            [
              87.2,
              27.05
            ],
            [
              86.7,
              27.05
            ],
            [
              86.7,
              26.65
            ]
          ]
        ]
      }
    }
  ]
}