{
  "type": "FeatureCollection",
  "features": [
    {
      "type": "Feature",
      "properties": {
        "river_name": "Kosi River",
        "reach": "Kosi Barrage Downstream Reach"
      },
      "geometry": {
        "type": "LineString",
        "coordinates": [
          [
            87.15,
            26.9
          ],
          [
            87.14184,
            26.89908
          ],
          [
            87.13367,
            26.89635
          ],
          [
            87.12551,
            26.8919
          ],
          [
            87.11735,
            26.88592
          ],
          [
            87.10918,
            26.87861
          ],
          [
            87.10102,
            26.87024
          ],
          [
            87.09286,
            26.86113
          ],
          [
            87.08469,
            26.8516
          ],
          [
            87.07653,
            26.84202
          ],
          [
            87.06837,
            26.83273
          ],
          [
            87.0602,
            26.82408
          ],
          [
            87.05204,
            26.81638
          ],
          [
            87.04388,
            26.80993
          ],
          [
            87.03571,
            26.80495
          ],
          [
            87.02755,
            26.80164
          ],
          [
            87.01939,
            26.8001
          ],
          [
            87.01122,
            26.80041
          ],
          [
            87.00306,
            26.80255
          ],
          [
            86.9949,
            26.80643
          ],
          [
            86.98673,
            26.81193
          ],
          [
            86.97857,
            26.81883
          ],
          [
            86.97041,
            26.82687
          ],
          [
            86.96224,
            26.83577
          ],
          [
            86.95408,
            26.8452
          ],
          [
            86.94592,
            26.8548
          ],
          [
            86.93776,
            26.86423
          ],
          [
            86.92959,
            26.87313
          ],
          [
            86.92143,
            26.88117
          ],
          [
            86.91327,
            26.88807
          ],
          [
            86.9051,
            26.89357
          ],
          [
            86.89694,
            26.89745
          ],
          [
            86.88878,
            26.89959
          ],
          [
            86.88061,
            26.8999
          ],
          [
            86.87245,
            26.89836
          ],
          [
            86.86429,
            26.89505
          ],
          [
            86.85612,
            26.89007
          ],
          [
            86.84796,
            26.88362
          ],
          [
            86.8398,
            26.87592
          ],
          [
            86.83163,
            26.86727
          ],
          [
            86.82347,
            26.85798
          ],
          [
            86.81531,
            26.8484
          ],
          [
            86.80714,
            26.83887
          ],
          [
            86.79898,
            26.82976
          ],
          [
            86.79082,
            26.82139
          ],
          [
            86.78265,
            26.81408
          ],
          [
            86.77449,
            26.8081
          ],
          [
            86.76633,
            26.80365
          ],
          [
            86.75816,
            26.80092
          ],
          [
            86.75,
            26.8
          ]
        ]
      }
    }
  ]
}