{
  "type": "FeatureCollection",
  "features": [
    {
      "type": "Feature",
      "properties": {
        "name": "Chenab River Basin Study Area",
        "state": "Jammu & Kashmir"
      },
      "geometry": {
        "type": "Polygon",
        "coordinates": [
          [
            [
              75.1,
              32.95
            ],
            [
              75.6,
              32.95
            ],
            [
              75.6,
              33.35
            ],
            [
              75.1,
              33.35
            ],
            [
              75.1,
              32.95
            ]
          ]
        ]
      }
    }
  ]
}