{
  "type": "FeatureCollection",
  "features": [
    {
      "type": "Feature",
      "properties": {
        "river_name": "Chenab River",
        "reach": "Baglihar to Ramban Reach"
      },
      "geometry": {
        "type": "LineString",
        "coordinates": [
          [
            75.55,
            33.15
          ],
          [
            75.54184,
            33.16277
          ],
          [
            75.53367,
            33.17521
          ],
          [
            75.52551,
            33.187
          ],
          [
            75.51735,
            33.19785
          ],
          [
            75.50918,
            33.20747
          ],
          [
            75.50102,
            33.21561
          ],
          [
            75.49286,
            33.22208
          ],
          [
            75.48469,
            33.22669
          ],
          [
            75.47653,
            33.22934
          ],
          [
            75.46837,
            33.22996
          ],
          [
            75.4602,
            33.22852
          ],
          [
            75.45204,
            33.22508
          ],
          [
            75.44388,
            33.21971
          ],
          [
            75.43571,
            33.21255
          ],
          [
            75.42755,
            33.20378
          ],
          [
            75.41939,
            33.19364
          ],
          [
            75.41122,
            33.18238
          ],
          [
            75.40306,
            33.17029
          ],
          [
            75.3949,
            33.15768
          ],
          [
            75.38673,
            33.14487
          ],
          [
            75.37857,
            33.1322
          ],
          [
            75.37041,
            33.11998
          ],
          [
            75.36224,
            33.10853
          ],
          [
            75.35408,
            33.09814
          ],
          [
            75.34592,
            33.08908
          ],
          [
            75.33776,
            33.08159
          ],
          [
            75.32959,
            33.07585
          ],
          [
            75.32143,
            33.07201
          ],
          [
            75.31327,
            33.07016
          ],
          [
            75.3051,
            33.07037
          ],
          [
            75.29694,
            33.07262
          ],
          [
            75.28878,
            33.07685
          ],
          [
            75.28061,
            33.08295
          ],
          [
            75.27245,
            33.09078
          ],
          [
            75.26429,
            33.10012
          ],
          [
            75.25612,
            33.11074
          ],
          [
            75.24796,
            33.12237
          ],
          [
            75.2398,
            33.13471
          ],
          [
            75.23163,
            33.14744
          ],
          [
            75.22347,
            33.16023
          ],
          [
            75.21531,
            33.17276
          ],
          [
            75.20714,
            33.18471
          ],
          [
            75.19898,
            33.19577
          ],
          [
            75.19082,
            33.20565
          ],
          [
            75.18265,
            33.21411
          ],
          [
            75.17449,
            33.22093
          ],
          [
            75.16633,
            33.22592
          ],
          [
            75.15816,
            33.22897
          ],
          [
            75.15,
            33.23
          ]
        ]
      }
    }
  ]
}